{"fetched_at":"2026-07-23T17:55:21.907Z","source":"https://celestrak.org/NORAD/elements/gp.php?NAME=CAPELLA&FORMAT=JSON","constellation":"capella","records":[{"OBJECT_NAME":"CAPELLA-11 (ACADIA-1)","OBJECT_ID":"2023-126A","EPOCH":"2026-07-22T12:32:46.305024","CLASSIFICATION_TYPE":"U","MEAN_MOTION":14.85378792,"ECCENTRICITY":0.00014097,"INCLINATION":53.0143,"RA_OF_ASC_NODE":31.4342,"ARG_OF_PERICENTER":159.5824,"MEAN_ANOMALY":200.5212,"EPHEMERIS_TYPE":0,"NORAD_CAT_ID":57693,"ELEMENT_SET_NO":999,"REV_AT_EPOCH":15737,"BSTAR":0.00047723144,"MEAN_MOTION_DOT":0.00003917,"MEAN_MOTION_DDOT":0},{"OBJECT_NAME":"CAPELLA-14 (ACADIA-4)","OBJECT_ID":"2024-066C","EPOCH":"2026-07-23T01:21:44.837280","CLASSIFICATION_TYPE":"U","MEAN_MOTION":15.06902881,"ECCENTRICITY":0.00009517,"INCLINATION":45.6035,"RA_OF_ASC_NODE":66.7112,"ARG_OF_PERICENTER":204.7548,"MEAN_ANOMALY":155.3291,"EPHEMERIS_TYPE":0,"NORAD_CAT_ID":59444,"ELEMENT_SET_NO":999,"REV_AT_EPOCH":11790,"BSTAR":0.00089980231,"MEAN_MOTION_DOT":0.00013424,"MEAN_MOTION_DDOT":0},{"OBJECT_NAME":"CAPELLA-13 (ACADIA-3)","OBJECT_ID":"2024-142A","EPOCH":"2026-07-23T04:13:46.958880","CLASSIFICATION_TYPE":"U","MEAN_MOTION":14.8766649,"ECCENTRICITY":0.00013294,"INCLINATION":53.0038,"RA_OF_ASC_NODE":260.4756,"ARG_OF_PERICENTER":88.5016,"MEAN_ANOMALY":271.6117,"EPHEMERIS_TYPE":0,"NORAD_CAT_ID":60419,"ELEMENT_SET_NO":999,"REV_AT_EPOCH":10576,"BSTAR":0.00029032083,"MEAN_MOTION_DOT":0.00002432,"MEAN_MOTION_DDOT":0},{"OBJECT_NAME":"CAPELLA-15 (ACADIA-5)","OBJECT_ID":"2024-149CE","EPOCH":"2026-07-22T04:29:48.543360","CLASSIFICATION_TYPE":"U","MEAN_MOTION":14.92392787,"ECCENTRICITY":0.00027931,"INCLINATION":97.6752,"RA_OF_ASC_NODE":275.2124,"ARG_OF_PERICENTER":309.4682,"MEAN_ANOMALY":50.629,"EPHEMERIS_TYPE":0,"NORAD_CAT_ID":60544,"ELEMENT_SET_NO":999,"REV_AT_EPOCH":10507,"BSTAR":0.00029174654,"MEAN_MOTION_DOT":0.00002932,"MEAN_MOTION_DDOT":0},{"OBJECT_NAME":"CAPELLA-17 (ACADIA-7)","OBJECT_ID":"2025-135BH","EPOCH":"2026-07-23T07:06:49.563936","CLASSIFICATION_TYPE":"U","MEAN_MOTION":14.91687637,"ECCENTRICITY":0.00046071,"INCLINATION":97.7706,"RA_OF_ASC_NODE":317.3887,"ARG_OF_PERICENTER":217.8625,"MEAN_ANOMALY":142.227,"EPHEMERIS_TYPE":0,"NORAD_CAT_ID":64583,"ELEMENT_SET_NO":999,"REV_AT_EPOCH":5923,"BSTAR":0.00057445891,"MEAN_MOTION_DOT":0.00005725,"MEAN_MOTION_DDOT":0},{"OBJECT_NAME":"CAPELLA-16 (ACADIA-6)","OBJECT_ID":"2025-188D","EPOCH":"2026-07-23T04:34:51.263040","CLASSIFICATION_TYPE":"U","MEAN_MOTION":14.9411645,"ECCENTRICITY":0.00057552,"INCLINATION":97.7366,"RA_OF_ASC_NODE":278.8049,"ARG_OF_PERICENTER":116.1323,"MEAN_ANOMALY":244.0489,"EPHEMERIS_TYPE":0,"NORAD_CAT_ID":65318,"ELEMENT_SET_NO":999,"REV_AT_EPOCH":4929,"BSTAR":0.00056381987,"MEAN_MOTION_DOT":0.00005975,"MEAN_MOTION_DDOT":0},{"OBJECT_NAME":"CAPELLA-19 (ACADIA-9)","OBJECT_ID":"2026-004X","EPOCH":"2026-07-22T11:13:34.063104","CLASSIFICATION_TYPE":"U","MEAN_MOTION":14.86662039,"ECCENTRICITY":0.00015234,"INCLINATION":97.8014,"RA_OF_ASC_NODE":201.2037,"ARG_OF_PERICENTER":96.2052,"MEAN_ANOMALY":263.9337,"EPHEMERIS_TYPE":0,"NORAD_CAT_ID":67384,"ELEMENT_SET_NO":999,"REV_AT_EPOCH":2851,"BSTAR":0.00052383174,"MEAN_MOTION_DOT":0.000046,"MEAN_MOTION_DDOT":0},{"OBJECT_NAME":"CAPELLA-18 (ACADIA-8)","OBJECT_ID":"2026-004Y","EPOCH":"2026-07-22T22:46:29.546976","CLASSIFICATION_TYPE":"U","MEAN_MOTION":14.86655189,"ECCENTRICITY":0.00012406,"INCLINATION":97.8003,"RA_OF_ASC_NODE":201.8273,"ARG_OF_PERICENTER":80.3843,"MEAN_ANOMALY":279.7513,"EPHEMERIS_TYPE":0,"NORAD_CAT_ID":67385,"ELEMENT_SET_NO":999,"REV_AT_EPOCH":2859,"BSTAR":0.00046383784,"MEAN_MOTION_DOT":0.00004066,"MEAN_MOTION_DDOT":0},{"OBJECT_NAME":"CAPELLA-20 (ACADIA-10)","OBJECT_ID":"2026-067BX","EPOCH":"2026-07-22T17:05:23.887392","CLASSIFICATION_TYPE":"U","MEAN_MOTION":14.9139079,"ECCENTRICITY":0.00032344,"INCLINATION":97.7659,"RA_OF_ASC_NODE":161.4334,"ARG_OF_PERICENTER":27.5233,"MEAN_ANOMALY":332.6156,"EPHEMERIS_TYPE":0,"NORAD_CAT_ID":68485,"ELEMENT_SET_NO":999,"REV_AT_EPOCH":1702,"BSTAR":0.00055864861,"MEAN_MOTION_DOT":0.00005524,"MEAN_MOTION_DDOT":0}]}
